ONEWEB-0189             
1 48217U 21031H   22230.65135112 -.00000157  00000+0 -45743-3 0  9992
2 48217  87.9027 207.6285 0002186  64.1681 295.9674 13.14504224 64491
ONEWEB-0196             
1 48218U 21031J   22230.93467904  .00000249  00000+0  63799-3 0  9992
2 48218  87.9048 207.6070 0002134  79.0160 281.1210 13.14503279 64534
ONEWEB-0183             
1 48219U 21031K   22230.67884181 -.00000060  00000+0 -19630-3 0  9992
2 48219  87.9050 207.6763 0001888  84.4362 275.6983 13.14503883 64598
ONEWEB-0185             
1 48220U 21031L   22230.93573091  .00000169  00000+0  42123-3 0  9999
2 48220  87.9039 207.6058 0001850  80.8939 279.2400 13.14500310 64555
ONEWEB-0187             
1 48221U 21031M   22230.68306617  .00000089  00000+0  20493-3 0  9997
2 48221  87.9046 207.6772 0001767  80.8869 279.2460 13.14501624 64539
ONEWEB-0192             
1 48222U 21031N   22230.65556608 -.00000204  00000+0 -58585-3 0  9996
2 48222  87.9035 207.6319 0002215  77.3136 282.8241 13.14504310 64444
ONEWEB-0219             
1 48223U 21031P   22230.94101553  .00000128  00000+0  30989-3 0  9995
2 48223  87.9029 207.5618 0001894  79.9681 280.1663 13.14500782 64688
ONEWEB-0202             
1 48224U 21031Q   22230.69151957  .00000174  00000+0  43389-3 0  9990
2 48224  87.9047 207.6790 0002656  55.5114 304.6266 13.14504009 64631
ONEWEB-0204             
1 48225U 21031R   22230.67566025 -.00000082  00000+0 -25581-3 0  9999
2 48225  87.9066 207.7057 0002189 103.8851 256.2522 13.14505229 64526
ONEWEB-0205             
1 48226U 21031S   22230.70209439  .00000196  00000+0  49445-3 0  9996
2 48226  87.9046 207.6555 0001983  70.7496 289.3848 13.14501172 64548
ONEWEB-0206             
1 48227U 21031T   22230.67458371 -.00003088  00000+0 -83652-2 0  9996
2 48227  87.9019 207.6022 0001785  81.8343 278.2989 13.14519763 64494
ONEWEB-0182             
1 48228U 21031U   22230.66826577 -.00000104  00000+0 -31396-3 0  9998
2 48228  87.9063 207.7195 0001751  79.5631 280.5696 13.14504768 64707
ONEWEB-0186             
1 48229U 21031V   22230.68094435  .00000038  00000+0  68498-4 0  9999
2 48229  87.9032 207.6336 0001952  76.1799 283.9548 13.14504694 64656
ONEWEB-0181             
1 48230U 21031W   22230.65768218 -.00000460  00000+0 -12745-2 0  9998
2 48230  87.9053 207.7027 0002060  80.4932 279.6430 13.14502193 64505
ONEWEB-0188             
1 48231U 21031X   22230.69786240  .00000211  00000+0  53452-3 0  9991
2 48231  87.9055 207.6967 0001833  80.0635 280.0701 13.14504801 64418
ONEWEB-0220             
1 48232U 21031Y   22230.65978745 -.00000220  00000+0 -62856-3 0  9991
2 48232  87.9028 207.6154 0001805  70.5132 289.6193 13.14504042 64677
ONEWEB-0165             
1 48233U 21031Z   22230.68940578  .00000227  00000+0  57850-3 0  9991
2 48233  87.9046 207.6811 0001854  74.9389 285.1945 13.14505810 64630
