[{"OBJECT_NAME":"ONEWEB-0189","OBJECT_ID":"2021-031H","EPOCH":"2022-08-18T15:37:56.736768","MEAN_MOTION":13.14504224,"ECCENTRICITY":0.0002186,"INCLINATION":87.9027,"RA_OF_ASC_NODE":207.6285,"ARG_OF_PERICENTER":64.1681,"MEAN_ANOMALY":295.9674,"EPHEMERIS_TYPE":0,"CLASSIFICATION_TYPE":"U","NORAD_CAT_ID":48217,"ELEMENT_SET_NO":999,"REV_AT_EPOCH":6449,"BSTAR":-0.00045743,"MEAN_MOTION_DOT":-1.57e-6,"MEAN_MOTION_DDOT":0},{"OBJECT_NAME":"ONEWEB-0196","OBJECT_ID":"2021-031J","EPOCH":"2022-08-18T22:25:56.269056","MEAN_MOTION":13.14503279,"ECCENTRICITY":0.0002134,"INCLINATION":87.9048,"RA_OF_ASC_NODE":207.607,"ARG_OF_PERICENTER":79.016,"MEAN_ANOMALY":281.121,"EPHEMERIS_TYPE":0,"CLASSIFICATION_TYPE":"U","NORAD_CAT_ID":48218,"ELEMENT_SET_NO":999,"REV_AT_EPOCH":6453,"BSTAR":0.00063799,"MEAN_MOTION_DOT":2.49e-6,"MEAN_MOTION_DDOT":0},{"OBJECT_NAME":"ONEWEB-0183","OBJECT_ID":"2021-031K","EPOCH":"2022-08-18T16:17:31.932384","MEAN_MOTION":13.14503883,"ECCENTRICITY":0.0001888,"INCLINATION":87.905,"RA_OF_ASC_NODE":207.6763,"ARG_OF_PERICENTER":84.4362,"MEAN_ANOMALY":275.6983,"EPHEMERIS_TYPE":0,"CLASSIFICATION_TYPE":"U","NORAD_CAT_ID":48219,"ELEMENT_SET_NO":999,"REV_AT_EPOCH":6459,"BSTAR":-0.0001963,"MEAN_MOTION_DOT":-6.0e-7,"MEAN_MOTION_DDOT":0},{"OBJECT_NAME":"ONEWEB-0185","OBJECT_ID":"2021-031L","EPOCH":"2022-08-18T22:27:27.150624","MEAN_MOTION":13.1450031,"ECCENTRICITY":0.000185,"INCLINATION":87.9039,"RA_OF_ASC_NODE":207.6058,"ARG_OF_PERICENTER":80.8939,"MEAN_ANOMALY":279.24,"EPHEMERIS_TYPE":0,"CLASSIFICATION_TYPE":"U","NORAD_CAT_ID":48220,"ELEMENT_SET_NO":999,"REV_AT_EPOCH":6455,"BSTAR":0.00042123,"MEAN_MOTION_DOT":1.69e-6,"MEAN_MOTION_DDOT":0},{"OBJECT_NAME":"ONEWEB-0187","OBJECT_ID":"2021-031M","EPOCH":"2022-08-18T16:23:36.917088","MEAN_MOTION":13.14501624,"ECCENTRICITY":0.0001767,"INCLINATION":87.9046,"RA_OF_ASC_NODE":207.6772,"ARG_OF_PERICENTER":80.8869,"MEAN_ANOMALY":279.246,"EPHEMERIS_TYPE":0,"CLASSIFICATION_TYPE":"U","NORAD_CAT_ID":48221,"ELEMENT_SET_NO":999,"REV_AT_EPOCH":6453,"BSTAR":0.00020493,"MEAN_MOTION_DOT":8.9e-7,"MEAN_MOTION_DDOT":0},{"OBJECT_NAME":"ONEWEB-0192","OBJECT_ID":"2021-031N","EPOCH":"2022-08-18T15:44:00.909312","MEAN_MOTION":13.1450431,"ECCENTRICITY":0.0002215,"INCLINATION":87.9035,"RA_OF_ASC_NODE":207.6319,"ARG_OF_PERICENTER":77.3136,"MEAN_ANOMALY":282.8241,"EPHEMERIS_TYPE":0,"CLASSIFICATION_TYPE":"U","NORAD_CAT_ID":48222,"ELEMENT_SET_NO":999,"REV_AT_EPOCH":6444,"BSTAR":-0.00058585,"MEAN_MOTION_DOT":-2.04e-6,"MEAN_MOTION_DDOT":0},{"OBJECT_NAME":"ONEWEB-0219","OBJECT_ID":"2021-031P","EPOCH":"2022-08-18T22:35:03.741792","MEAN_MOTION":13.14500782,"ECCENTRICITY":0.0001894,"INCLINATION":87.9029,"RA_OF_ASC_NODE":207.5618,"ARG_OF_PERICENTER":79.9681,"MEAN_ANOMALY":280.1663,"EPHEMERIS_TYPE":0,"CLASSIFICATION_TYPE":"U","NORAD_CAT_ID":48223,"ELEMENT_SET_NO":999,"REV_AT_EPOCH":6468,"BSTAR":0.00030989,"MEAN_MOTION_DOT":1.28e-6,"MEAN_MOTION_DDOT":0},{"OBJECT_NAME":"ONEWEB-0202","OBJECT_ID":"2021-031Q","EPOCH":"2022-08-18T16:35:47.290848","MEAN_MOTION":13.14504009,"ECCENTRICITY":0.0002656,"INCLINATION":87.9047,"RA_OF_ASC_NODE":207.679,"ARG_OF_PERICENTER":55.5114,"MEAN_ANOMALY":304.6266,"EPHEMERIS_TYPE":0,"CLASSIFICATION_TYPE":"U","NORAD_CAT_ID":48224,"ELEMENT_SET_NO":999,"REV_AT_EPOCH":6463,"BSTAR":0.00043389,"MEAN_MOTION_DOT":1.74e-6,"MEAN_MOTION_DDOT":0},{"OBJECT_NAME":"ONEWEB-0204","OBJECT_ID":"2021-031R","EPOCH":"2022-08-18T16:12:57.045600","MEAN_MOTION":13.14505229,"ECCENTRICITY":0.0002189,"INCLINATION":87.9066,"RA_OF_ASC_NODE":207.7057,"ARG_OF_PERICENTER":103.8851,"MEAN_ANOMALY":256.2522,"EPHEMERIS_TYPE":0,"CLASSIFICATION_TYPE":"U","NORAD_CAT_ID":48225,"ELEMENT_SET_NO":999,"REV_AT_EPOCH":6452,"BSTAR":-0.00025581,"MEAN_MOTION_DOT":-8.2e-7,"MEAN_MOTION_DDOT":0},{"OBJECT_NAME":"ONEWEB-0205","OBJECT_ID":"2021-031S","EPOCH":"2022-08-18T16:51:00.955296","MEAN_MOTION":13.14501172,"ECCENTRICITY":0.0001983,"INCLINATION":87.9046,"RA_OF_ASC_NODE":207.6555,"ARG_OF_PERICENTER":70.7496,"MEAN_ANOMALY":289.3848,"EPHEMERIS_TYPE":0,"CLASSIFICATION_TYPE":"U","NORAD_CAT_ID":48226,"ELEMENT_SET_NO":999,"REV_AT_EPOCH":6454,"BSTAR":0.00049445,"MEAN_MOTION_DOT":1.96e-6,"MEAN_MOTION_DDOT":0},{"OBJECT_NAME":"ONEWEB-0206","OBJECT_ID":"2021-031T","EPOCH":"2022-08-18T16:11:24.032544","MEAN_MOTION":13.14519763,"ECCENTRICITY":0.0001785,"INCLINATION":87.9019,"RA_OF_ASC_NODE":207.6022,"ARG_OF_PERICENTER":81.8343,"MEAN_ANOMALY":278.2989,"EPHEMERIS_TYPE":0,"CLASSIFICATION_TYPE":"U","NORAD_CAT_ID":48227,"ELEMENT_SET_NO":999,"REV_AT_EPOCH":6449,"BSTAR":-0.0083652,"MEAN_MOTION_DOT":-3.088e-5,"MEAN_MOTION_DDOT":0},{"OBJECT_NAME":"ONEWEB-0182","OBJECT_ID":"2021-031U","EPOCH":"2022-08-18T16:02:18.162528","MEAN_MOTION":13.14504768,"ECCENTRICITY":0.0001751,"INCLINATION":87.9063,"RA_OF_ASC_NODE":207.7195,"ARG_OF_PERICENTER":79.5631,"MEAN_ANOMALY":280.5696,"EPHEMERIS_TYPE":0,"CLASSIFICATION_TYPE":"U","NORAD_CAT_ID":48228,"ELEMENT_SET_NO":999,"REV_AT_EPOCH":6470,"BSTAR":-0.00031396,"MEAN_MOTION_DOT":-1.04e-6,"MEAN_MOTION_DDOT":0},{"OBJECT_NAME":"ONEWEB-0186","OBJECT_ID":"2021-031V","EPOCH":"2022-08-18T16:20:33.591840","MEAN_MOTION":13.14504694,"ECCENTRICITY":0.0001952,"INCLINATION":87.9032,"RA_OF_ASC_NODE":207.6336,"ARG_OF_PERICENTER":76.1799,"MEAN_ANOMALY":283.9548,"EPHEMERIS_TYPE":0,"CLASSIFICATION_TYPE":"U","NORAD_CAT_ID":48229,"ELEMENT_SET_NO":999,"REV_AT_EPOCH":6465,"BSTAR":6.8498e-5,"MEAN_MOTION_DOT":3.8e-7,"MEAN_MOTION_DDOT":0},{"OBJECT_NAME":"ONEWEB-0181","OBJECT_ID":"2021-031W","EPOCH":"2022-08-18T15:47:03.740352","MEAN_MOTION":13.14502193,"ECCENTRICITY":0.000206,"INCLINATION":87.9053,"RA_OF_ASC_NODE":207.7027,"ARG_OF_PERICENTER":80.4932,"MEAN_ANOMALY":279.643,"EPHEMERIS_TYPE":0,"CLASSIFICATION_TYPE":"U","NORAD_CAT_ID":48230,"ELEMENT_SET_NO":999,"REV_AT_EPOCH":6450,"BSTAR":-0.0012745,"MEAN_MOTION_DOT":-4.6e-6,"MEAN_MOTION_DDOT":0},{"OBJECT_NAME":"ONEWEB-0188","OBJECT_ID":"2021-031X","EPOCH":"2022-08-18T16:44:55.311360","MEAN_MOTION":13.14504801,"ECCENTRICITY":0.0001833,"INCLINATION":87.9055,"RA_OF_ASC_NODE":207.6967,"ARG_OF_PERICENTER":80.0635,"MEAN_ANOMALY":280.0701,"EPHEMERIS_TYPE":0,"CLASSIFICATION_TYPE":"U","NORAD_CAT_ID":48231,"ELEMENT_SET_NO":999,"REV_AT_EPOCH":6441,"BSTAR":0.00053452,"MEAN_MOTION_DOT":2.11e-6,"MEAN_MOTION_DDOT":0},{"OBJECT_NAME":"ONEWEB-0220","OBJECT_ID":"2021-031Y","EPOCH":"2022-08-18T15:50:05.635680","MEAN_MOTION":13.14504042,"ECCENTRICITY":0.0001805,"INCLINATION":87.9028,"RA_OF_ASC_NODE":207.6154,"ARG_OF_PERICENTER":70.5132,"MEAN_ANOMALY":289.6193,"EPHEMERIS_TYPE":0,"CLASSIFICATION_TYPE":"U","NORAD_CAT_ID":48232,"ELEMENT_SET_NO":999,"REV_AT_EPOCH":6467,"BSTAR":-0.00062856,"MEAN_MOTION_DOT":-2.2e-6,"MEAN_MOTION_DDOT":0},{"OBJECT_NAME":"ONEWEB-0165","OBJECT_ID":"2021-031Z","EPOCH":"2022-08-18T16:32:44.659392","MEAN_MOTION":13.1450581,"ECCENTRICITY":0.0001854,"INCLINATION":87.9046,"RA_OF_ASC_NODE":207.6811,"ARG_OF_PERICENTER":74.9389,"MEAN_ANOMALY":285.1945,"EPHEMERIS_TYPE":0,"CLASSIFICATION_TYPE":"U","NORAD_CAT_ID":48233,"ELEMENT_SET_NO":999,"REV_AT_EPOCH":6463,"BSTAR":0.0005785,"MEAN_MOTION_DOT":2.27e-6,"MEAN_MOTION_DDOT":0}]